{
  "type": "FeatureCollection",
  "features": [
    {
      "type": "Feature",
      "properties": {
        "norad_id": 2807,
        "name": "OPS 7218 (TRANSIT 16)",
        "group": "nnss",
        "lat": 32.350379800853624,
        "lon": -5.631649436067022,
        "alt_km": 1068.6025646501575,
        "timestamp": "2025-12-08T08:59:01.034249+00:00",
        "meta_object_name": "OPS 7218 (TRANSIT 16)",
        "meta_object_id": "1967-048A",
        "meta_epoch": "2025-12-07T22:22:47.201664",
        "meta_mean_motion": 13.5072089,
        "meta_eccentricity": 0.00217446,
        "meta_inclination": 89.6732,
        "meta_ra_of_asc_node": 354.1758,
        "meta_arg_of_pericenter": 126.9923,
        "meta_mean_anomaly": 278.5532,
        "meta_ephemeris_type": 0,
        "meta_classification_type": "U",
        "meta_norad_cat_id": 2807,
        "meta_element_set_no": 999,
        "meta_rev_at_epoch": 88211,
        "meta_bstar": 0.00022584266,
        "meta_mean_motion_dot": 1.56e-06,
        "meta_mean_motion_ddot": 0,
        "tle_line1": "1 02807U 67048A   25341.93249076  .00000156  00000+0  22584-3 0  9992",
        "tle_line2": "2 02807  89.6732 354.1758 0021744 126.9923 278.5532 13.50720890882114"
      },
      "geometry": {
        "type": "Point",
        "coordinates": [
          -5.631649436067022,
          32.350379800853624
        ]
      }
    },
    {
      "type": "Feature",
      "properties": {
        "norad_id": 2965,
        "name": "OPS 4947 (TRANSIT 17)",
        "group": "nnss",
        "lat": 54.36295138573901,
        "lon": 25.815615746464392,
        "alt_km": 1087.7566503407643,
        "timestamp": "2025-12-08T08:59:01.034271+00:00",
        "meta_object_name": "OPS 4947 (TRANSIT 17)",
        "meta_object_id": "1967-092A",
        "meta_epoch": "2025-12-07T21:09:13.300416",
        "meta_mean_motion": 13.53451787,
        "meta_eccentricity": 0.00459171,
        "meta_inclination": 89.25,
        "meta_ra_of_asc_node": 24.8062,
        "meta_arg_of_pericenter": 249.072,
        "meta_mean_anomaly": 284.9855,
        "meta_ephemeris_type": 0,
        "meta_classification_type": "U",
        "meta_norad_cat_id": 2965,
        "meta_element_set_no": 999,
        "meta_rev_at_epoch": 87031,
        "meta_bstar": 0.000273568,
        "meta_mean_motion_dot": 1.96e-06,
        "meta_mean_motion_ddot": 0,
        "tle_line1": "1 02965U 67092A   25341.88140394  .00000196  00000+0  27357-3 0  9990",
        "tle_line2": "2 02965  89.2500  24.8062 0045917 249.0720 284.9855 13.53451787870314"
      },
      "geometry": {
        "type": "Point",
        "coordinates": [
          25.815615746464392,
          54.36295138573901
        ]
      }
    },
    {
      "type": "Feature",
      "properties": {
        "norad_id": 3133,
        "name": "OPS 7034 (TRANSIT 18)",
        "group": "nnss",
        "lat": -53.867834520242546,
        "lon": 93.58883791842227,
        "alt_km": 1039.670070441789,
        "timestamp": "2025-12-08T08:59:01.034285+00:00",
        "meta_object_name": "OPS 7034 (TRANSIT 18)",
        "meta_object_id": "1968-012A",
        "meta_epoch": "2025-12-07T21:31:08.051808",
        "meta_mean_motion": 13.51563999,
        "meta_eccentricity": 0.00733862,
        "meta_inclination": 90.0275,
        "meta_ra_of_asc_node": 273.6252,
        "meta_arg_of_pericenter": 183.2093,
        "meta_mean_anomaly": 247.0145,
        "meta_ephemeris_type": 0,
        "meta_classification_type": "U",
        "meta_norad_cat_id": 3133,
        "meta_element_set_no": 999,
        "meta_rev_at_epoch": 56853,
        "meta_bstar": 0.00026139731,
        "meta_mean_motion_dot": 1.83e-06,
        "meta_mean_motion_ddot": 0,
        "tle_line1": "1 03133U 68012A   25341.89662097  .00000183  00000+0  26140-3 0  9996",
        "tle_line2": "2 03133  90.0275 273.6252 0073386 183.2093 247.0145 13.51563999568536"
      },
      "geometry": {
        "type": "Point",
        "coordinates": [
          93.58883791842227,
          -53.867834520242546
        ]
      }
    },
    {
      "type": "Feature",
      "properties": {
        "norad_id": 4507,
        "name": "NNSS 19 (TRANSIT 19)",
        "group": "nnss",
        "lat": -26.709841460381362,
        "lon": 54.527822299867346,
        "alt_km": 1092.1128862745472,
        "timestamp": "2025-12-08T08:59:01.034297+00:00",
        "meta_object_name": "NNSS 19 (TRANSIT 19)",
        "meta_object_id": "1970-067A",
        "meta_epoch": "2025-12-07T23:03:41.706432",
        "meta_mean_motion": 13.51313185,
        "meta_eccentricity": 0.01708532,
        "meta_inclination": 90.0058,
        "meta_ra_of_asc_node": 234.5305,
        "meta_arg_of_pericenter": 307.3368,
        "meta_mean_anomaly": 51.2321,
        "meta_ephemeris_type": 0,
        "meta_classification_type": "U",
        "meta_norad_cat_id": 4507,
        "meta_element_set_no": 999,
        "meta_rev_at_epoch": 72157,
        "meta_bstar": 0.00030634417,
        "meta_mean_motion_dot": 2.25e-06,
        "meta_mean_motion_ddot": 0,
        "tle_line1": "1 04507U 70067A   25341.96089938  .00000225  00000+0  30634-3 0  9990",
        "tle_line2": "2 04507  90.0058 234.5305 0170853 307.3368  51.2321 13.51313185721573"
      },
      "geometry": {
        "type": "Point",
        "coordinates": [
          54.527822299867346,
          -26.709841460381362
        ]
      }
    },
    {
      "type": "Feature",
      "properties": {
        "norad_id": 6909,
        "name": "NNSS 20 (TRANSIT 20)",
        "group": "nnss",
        "lat": -36.07143591074123,
        "lon": -104.98536388964838,
        "alt_km": 1069.4351468739678,
        "timestamp": "2025-12-08T08:59:01.034309+00:00",
        "meta_object_name": "NNSS 20 (TRANSIT 20)",
        "meta_object_id": "1973-081A",
        "meta_epoch": "2025-12-07T19:09:08.609184",
        "meta_mean_motion": 13.71430949,
        "meta_eccentricity": 0.0156606,
        "meta_inclination": 89.8561,
        "meta_ra_of_asc_node": 255.1282,
        "meta_arg_of_pericenter": 92.9417,
        "meta_mean_anomaly": 268.9679,
        "meta_ephemeris_type": 0,
        "meta_classification_type": "U",
        "meta_norad_cat_id": 6909,
        "meta_element_set_no": 999,
        "meta_rev_at_epoch": 80293,
        "meta_bstar": 0.00037191862,
        "meta_mean_motion_dot": 3.77e-06,
        "meta_mean_motion_ddot": 0,
        "tle_line1": "1 06909U 73081A   25341.79801631  .00000377  00000+0  37192-3 0  9994",
        "tle_line2": "2 06909  89.8561 255.1282 0156606  92.9417 268.9679 13.71430949802934"
      },
      "geometry": {
        "type": "Point",
        "coordinates": [
          -104.98536388964838,
          -36.07143591074123
        ]
      }
    },
    {
      "type": "Feature",
      "properties": {
        "norad_id": 10457,
        "name": "TRANSAT",
        "group": "nnss",
        "lat": -70.97961078584511,
        "lon": -100.22727636995585,
        "alt_km": 1071.222077544875,
        "timestamp": "2025-12-08T08:59:01.034320+00:00",
        "meta_object_name": "TRANSAT",
        "meta_object_id": "1977-106A",
        "meta_epoch": "2025-12-07T19:50:55.366944",
        "meta_mean_motion": 13.48942503,
        "meta_eccentricity": 0.00249351,
        "meta_inclination": 89.6482,
        "meta_ra_of_asc_node": 78.7709,
        "meta_arg_of_pericenter": 203.921,
        "meta_mean_anomaly": 270.65,
        "meta_ephemeris_type": 0,
        "meta_classification_type": "U",
        "meta_norad_cat_id": 10457,
        "meta_element_set_no": 999,
        "meta_rev_at_epoch": 36677,
        "meta_bstar": 0.00021915571,
        "meta_mean_motion_dot": 1.47e-06,
        "meta_mean_motion_ddot": 0,
        "tle_line1": "1 10457U 77106A   25341.82702971  .00000147  00000+0  21916-3 0  9992",
        "tle_line2": "2 10457  89.6482  78.7709 0024935 203.9210 270.6500 13.48942503366772"
      },
      "geometry": {
        "type": "Point",
        "coordinates": [
          -100.22727636995585,
          -70.97961078584511
        ]
      }
    },
    {
      "type": "Feature",
      "properties": {
        "norad_id": 12458,
        "name": "NOVA 1",
        "group": "nnss",
        "lat": -15.33800473720894,
        "lon": -88.51265693194149,
        "alt_km": 1174.9649271020926,
        "timestamp": "2025-12-08T08:59:01.034331+00:00",
        "meta_object_name": "NOVA 1",
        "meta_object_id": "1981-044A",
        "meta_epoch": "2025-12-07T21:43:11.372736",
        "meta_mean_motion": 13.2327777,
        "meta_eccentricity": 0.00157406,
        "meta_inclination": 89.8524,
        "meta_ra_of_asc_node": 91.4535,
        "meta_arg_of_pericenter": 115.8754,
        "meta_mean_anomaly": 4.6976,
        "meta_ephemeris_type": 0,
        "meta_classification_type": "U",
        "meta_norad_cat_id": 12458,
        "meta_element_set_no": 999,
        "meta_rev_at_epoch": 15122,
        "meta_bstar": 0.00027007074,
        "meta_mean_motion_dot": 1.23e-06,
        "meta_mean_motion_ddot": 0,
        "tle_line1": "1 12458U 81044A   25341.90499274  .00000123  00000+0  27007-3 0  9990",
        "tle_line2": "2 12458  89.8524  91.4535 0015740 115.8754   4.6976 13.23277770151225"
      },
      "geometry": {
        "type": "Point",
        "coordinates": [
          -88.51265693194149,
          -15.33800473720894
        ]
      }
    }
  ]
}